MESAT-1
1 60209U 24125G   24348.81108909  .00019461  00000-0  73284-3 0  9996
2 60209  97.2978 197.3091 0024530  53.3745 306.9745 15.26853695 24743
ISTSAT-1
1 60238U 24128D   24350.10948096  .00012052  00000-0  94149-3 0  9997
2 60238  61.9934 333.0807 0031417  13.8188 346.3755 15.01089648 23721
SAGANSAT-0
1 60958U 98067WY  24349.42075503  .04075410  12054-4  11755-2 0  9994
2 60958  51.6097 126.6236 0011003 308.1303  51.8725 16.26505921 16807
IONOSFERA-M 01
1 61735U 24199A   24350.20530823  .00000200  00000-0  10899-3 0  9996
2 61735  98.7916 215.8119 0000454   4.3516 355.7665 14.22775253 49641
IONOSFERA-M 02
1 61736U 24199B   24349.59978083  .00000161  00000-0  94011-4 0  9996
2 61736  98.7914 215.1438 0000839  74.6071 285.5198 14.21527101 52685
SITRO-AIS-16
1 61737U 24199C   24350.05410613  .00005973  00000-0  58016-3 0  9990
2 61737  97.3796 212.3970 0008811 110.2470 249.9699 14.92923590 49740
SITRO-AIS-15
1 61738U 24199D   24350.11897250  .00006125  00000-0  59365-3 0  9992
2 61738  97.3796 212.4625 0008576 110.3114 249.9029 14.93002506 49757
SITRO-AIS-21
1 61739U 24199E   24350.02522046  .00005339  00000-0  53751-3 0  9990
2 61739  97.3790 212.2857 0015106 105.6408 254.6480 14.91474919 49772
SITRO-AIS-22
1 61740U 24199F   24350.09207191  .00005554  00000-0  55877-3 0  9990
2 61740  97.3792 212.3503 0015184 106.5178 253.7711 14.91488362 49937
SITRO-AIS-24
1 61741U 24199G   24350.09101175  .00005219  00000-0  52500-3 0  9994
2 61741  97.3793 212.3522 0015088 107.9244 252.3622 14.91521954 49900
SITRO-AIS-23
1 61742U 24199H   24350.09064900  .00005224  00000-0  52527-3 0  9994
2 61742  97.3792 212.3523 0014993 107.3268 252.9593 14.91539742 49788
SITRO-AIS-13
1 61743U 24199J   24350.18331489  .00006514  00000-0  62928-3 0  9993
2 61743  97.3796 212.5291 0008393 111.0152 249.1967 14.93110786 49922
CSTP-2.11
1 61744U 24199K   24350.06388886  .00020182  00000-0  78848-3 0  9999
2 61744  97.3819 214.3323 0016268  87.2584 273.0516 15.25785606 49974
POLYTECH UNIVERSE-5 (RS70S)
1 61745U 24199L   24350.06151840  .00022180  00000-0  86231-3 0  9993
2 61745  97.3789 214.3199 0013790  93.7839 266.4977 15.25965622 53110
COLIBRI-S (RS67S)
1 61746U 24199M   24350.06745924  .00017486  00000-0  68860-3 0  9997
2 61746  97.3815 214.3252 0016160  88.2333 272.0756 15.25551995 53115
POLYTECH UNIVERSE-4 (RS71S)
1 61747U 24199N   24350.06638703  .00016505  00000-0  65057-3 0  9990
2 61747  97.3814 214.3259 0016075  86.8816 273.4262 15.25534951 53117
SITRO-AIS-44
1 61748U 24199P   24349.66516407  .00020948  00000-0  81106-3 0  9990
2 61748  97.3791 213.9353 0013656  94.3229 265.9570 15.26116400 53053
VIZARD-ION (RS68S)
1 61749U 24199Q   24349.73339539  .00017865  00000-0  69659-3 0  9991
2 61749  97.3819 214.0102 0015925  87.2999 273.0062 15.25882003 53060
MTUSI-1
1 61750U 24199R   24349.81512751  .00017963  00000-0  71377-3 0  9990
2 61750  97.3793 214.0403 0016234  97.5936 262.7146 15.25245251 53073
VLADIVOSTOK-1
1 61751U 24199S   24350.08042164  .00012291  00000-0  49634-3 0  9998
2 61751  97.3791 214.2957 0014673  96.5524 263.7385 15.24812704 53129
SITRO-AIS-14
1 61752U 24199T   24350.11752046  .00006027  00000-0  58344-3 0  9998
2 61752  97.3796 212.4644 0008440 110.9041 249.3084 14.93054690 53053
HORS-3 (RS81S)
1 61753U 24199U   24350.06981429  .00020347  00000-0  80136-3 0  9997
2 61753  97.3788 214.3092 0014524  94.4565 265.8333 15.25540898 53113
HORS-4 (RS82S)
1 61754U 24199V   24350.06654497  .00021452  00000-0  83919-3 0  9990
2 61754  97.3788 214.3132 0014689  94.3457 265.9460 15.25753774 53111
SITRO-AIS-43
1 61755U 24199W   24350.05757230  .00024519  00000-0  94676-3 0  9998
2 61755  97.3788 214.3249 0013579  93.2725 267.0067 15.26174324 53119
SITRO-AIS-42
1 61756U 24199X   24350.05716606  .00024931  00000-0  96196-3 0  9998
2 61756  97.3788 214.3253 0013553  93.5328 266.7460 15.26196051 53113
HORIZON (RS59S)
1 61757U 24199Y   24350.05751983  .00028306  00000-0  10904-2 0  9998
2 61757  97.3813 214.3373 0016039  85.8504 274.4567 15.26189236 53119
SITRO-AIS-20
1 61758U 24199Z   24350.11443844  .00006564  00000-0  63295-3 0  9994
2 61758  97.3794 212.4670 0008165 112.4950 247.7136 14.93179670 53052
SITRO-AIS-19
1 61759U 24199AA  24350.11346830  .00006523  00000-0  62860-3 0  9994
2 61759  97.3793 212.4685 0008068 114.0432 246.1633 14.93210846 53059
SITRO-AIS-41
1 61760U 24199AB  24350.05733817  .00024278  00000-0  93881-3 0  9998
2 61760  97.3789 214.3252 0013407  94.2112 266.0659 15.26131121 53115
2024-199AC
1 61761U 24199AC  24350.05783262  .00021391  00000-0  82993-3 0  9993
2 61761  97.3789 214.3243 0013193  94.6495 265.6251 15.26049312 53119
ARCTICSAT-1 (RS74S)
1 61762U 24199AD  24350.11775671  .00027718  00000-0  10582-2 0  9999
2 61762  97.3812 214.4087 0015919  84.4126 275.8927 15.26494706 53125
SIT-HSE
1 61763U 24199AE  24350.12053294  .00024596  00000-0  94725-3 0  9994
2 61763  97.3788 214.3934 0013219  93.9797 266.2953 15.26266334 53125
SIT-2086
1 61764U 24199AF  24350.18361489  .00025559  00000-0  98114-3 0  9995
2 61764  97.3789 214.4619 0012947  94.2584 266.0134 15.26369133 49971
MORDOVIA-IOT (RS50S)
1 61765U 24199AG  24350.17426900  .00033929  00000-0  12709-2 0  9990
2 61765  97.3814 214.4866 0015906  82.5078 277.7967 15.27082429 49986
RUZAEVKA-390 (RS44S)
1 61766U 24199AH  24350.17500324  .00033019  00000-0  12412-2 0  9995
2 61766  97.3812 214.4834 0015741  82.0986 278.2039 15.26973689 49982
2024-199AJ (? AHMAT-2)
1 61767U 24199AJ  24350.16666900  .00034071  00000-0  12612-2 0  9999
2 61767  97.3809 214.4921 0015572  80.3426 279.9571 15.27477909 49982
HOD-HOD
1 61768U 24199AK  24349.78562553  .00017410  00000-0  67199-3 0  9994
2 61768  97.3797 214.0834 0011080  99.4396 260.8096 15.26288151 49928
KOSAR
1 61769U 24199AL  24349.97841326  .00019573  00000-0  74999-3 0  9992
2 61769  97.3792 214.2813 0011007  99.0463 261.2021 15.26507284 49950
2024-199AM
1 61770U 24199AM  24349.57192496  .00099774  00000-0  30660-2 0  9994
2 61770  97.3629 213.9674 0020084  92.0717 268.2825 15.33111075 49903
SITRO-AIS-48
1 61771U 24199AN  24349.82553392  .00019876  00000-0  79644-3 0  9990
2 61771  97.3765 214.0131 0016939 104.9920 255.3194 15.24932028 49925
HYPERVIEW-1G (RS66S)
1 61772U 24199AP  24349.75733897  .00022854  00000-0  90822-3 0  9994
2 61772  97.3787 213.9645 0018731  98.8597 261.4762 15.25150796 49914
SITRO-AIS-47
1 61773U 24199AQ  24350.15442532  .00023112  00000-0  92575-3 0  9999
2 61773  97.3765 214.3363 0017056 104.2372 256.0761 15.24912697 49975
SITRO-AIS-46
1 61774U 24199AR  24350.15459275  .00023174  00000-0  92761-3 0  9997
2 61774  97.3763 214.3358 0017244 104.0154 256.3002 15.24931081 49972
CSTP-2.2
1 61775U 24199AS  24350.09749844  .00014451  00000-0  59175-3 0  9995
2 61775  97.3792 214.2737 0018750  98.9900 261.3461 15.24243474 49964
SITRO-AIS-40
1 61776U 24199AT  24350.15561997  .00023592  00000-0  94516-3 0  9998
2 61776  97.3765 214.3356 0017404 104.4062 255.9109 15.24895769 53121
CSTP-2.1
1 61777U 24199AU  24350.16377823  .00015009  00000-0  61401-3 0  9994
2 61777  97.3793 214.3373 0018923  99.3138 261.0240 15.24264260 49973
SITRO-AIS-39
1 61778U 24199AV  24350.22375280  .00023579  00000-0  94827-3 0  9996
2 61778  97.3763 214.3964 0017425 104.8116 255.5054 15.24767264 49985
ALTAIR (RS65S)
1 61779U 24199AW  24350.16539145  .00014131  00000-0  58033-3 0  9995
2 61779  97.3792 214.3353 0019042  99.1011 261.2382 15.24145667 53123
SITRO-AIS-37
1 61780U 24199AX  24350.15917775  .00022744  00000-0  91577-3 0  9994
2 61780  97.3772 214.3348 0017715 104.7235 255.5968 15.24730474 49973
ASRTU-1 (RS64S)
1 61781U 24199AY  24350.10425061  .00013723  00000-0  56754-3 0  9997
2 61781  97.3794 214.2651 0019178  99.4181 260.9225 15.23912237 49962
TUSUR GO (RS78S)
1 61782U 24199AZ  24350.15992649  .00029575  00000-0  11846-2 0  9998
2 61782  97.3790 214.3418 0020039  97.1816 263.1701 15.24810070 49977
ZIMSAT-2 (Z2AS)
1 61783U 24199BA  24350.15453963  .00034205  00000-0  13459-2 0  9998
2 61783  97.3785 214.3465 0020620  96.4883 263.8704 15.25362093 53126
SAMSAT-IONOSPHERE (RS75S)
1 61784U 24199BB  24350.16185098  .00022291  00000-0  89959-3 0  9992
2 61784  97.3789 214.3389 0019756  97.9859 262.3622 15.24621014 53126
RTU MIREA-1 (RS51S)
1 61785U 24199BC  24350.16117073  .00023684  00000-0  95403-3 0  9999
2 61785  97.3789 214.3401 0019692  97.4332 262.9144 15.24672304 49973
SITRO-AIS-38
1 61786U 24199BD  24350.16015863  .00022593  00000-0  91083-3 0  9992
2 61786  97.3767 214.3309 0017654 105.6900 254.6286 15.24690563 49978
2024-199BE (? SWSU-60)
1 61787U 24199BE  24350.16981628  .00013218  00000-0  54679-3 0  9998
2 61787  97.3791 214.3295 0019377  99.1459 261.1972 15.23910671 53121
SITRO-AIS-45
1 61788U 24199BF  24350.15616137  .00023080  00000-0  92643-3 0  9999
2 61788  97.3759 214.3316 0017297 104.5449 255.7709 15.24837560 49958
SITRO-AIS-17
1 61789U 24199BG  24350.17983688  .00006687  00000-0  64376-3 0  9996
2 61789  97.3797 212.5347 0008174 117.1280 243.0775 14.93236980 49960
SITRO-AIS-18
1 61790U 24199BH  24350.18010697  .00006648  00000-0  64034-3 0  9998
2 61790  97.3794 212.5321 0008070 115.1086 245.0973 14.93224032 49965
YOMOGI
1 90000U          24345.40000000  .00000000  00000-0  34741-3 0    06
2 90000  51.6375 162.4936 0008367 294.8288 347.2202 15.51348604    01
LIGNOSAT
1 90001U          24345.40000000  .00000000  00000-0  34741-3 0    07
2 90001  51.6375 162.4936 0008367 294.8288 347.2202 15.51348604    02
